STF-1                   
1 43852U 18104D   22336.61282883  .00013314  00000+0  44959-3 0  9995
2 43852  85.0271 300.1934 0013281  29.5101 330.6892 15.30457432220223
ZACUBE-2                
1 43907U 18111AH  22336.89184034  .00009289  00000+0  31311-3 0  9997
2 43907  97.1644 217.2625 0017556 194.3739 228.6085 15.30793686219035
LUME 1                  
1 43908U 18111AJ  22336.63385436  .00012980  00000+0  39156-3 0  9996
2 43908  97.1671 219.2869 0015839 184.8876 175.2215 15.34288834219148
AOBA VELOX-IV           
1 43940U 19003J   22336.88069265  .00040856  00000+0  76439-3 0  9997
2 43940  97.1093   8.6854 0010955 249.4326 110.5750 15.48539701216081
MOVE-IIB                
1 44398U 19038N   22336.88565175  .00015372  00000+0  64368-3 0  9997
2 44398  97.6471 308.4566 0016913 267.9214  92.0090 15.23515993188636
SONATE                  
1 44400U 19038Q   22336.76932018  .00005123  00000+0  26524-3 0  9997
2 44400  97.6623 306.4173 0020606 273.9482  85.9395 15.16499740188428
LUCKY-7                 
1 44406U 19038W   22336.38431957  .00006812  00000+0  33874-3 0  9999
2 44406  97.6604 306.7681 0019490 272.2215  87.6786 15.17806938188419
BEESAT 9                
1 44412U 19038AC  22336.38841708  .00010018  00000+0  46512-3 0  9991
2 44412  97.6564 307.4253 0016563 275.7658  84.1688 15.20106686188174
JAISAT-1                
1 44419U 19038F   22336.38816075  .00009797  00000+0  44922-3 0  9992
2 44419  97.6564 308.3901 0015566 272.2932  87.6520 15.20557445188547
DUCHIFAT-3              
1 44854U 19089C   22336.96041860  .00003464  00000+0  26206-3 0  9997
2 44854  36.9649 180.4799 0005947 159.7045 341.9160 15.02450997163273
EYESAT-NANO             
1 44877U 19092E   22336.77127140  .00013177  00000+0  50436-3 0  9995
2 44877  97.4596 160.4100 0011498 121.7911 238.4449 15.26628618164009
ORBITAL FACTORY 2 (OF-2)
1 45113U 19071C   22336.35148535  .00052641  00000+0  68991-3 0  9995
2 45113  51.6338 307.1035 0011640  72.7143 287.5122 15.57967420159421
M2 PATHFINDER           
1 45727U 20037E   22335.92225635  .00002136  00000+0  21316-3 0  9993
2 45727  97.7407 148.4963 0012225 195.0883 164.9984 14.92539635131803
NETSAT-4                
1 46504U 20068U   22336.77794332  .00004088  00000+0  29560-3 0  9997
2 46504  97.7396 276.4793 0012806 111.8002 248.4584 15.04540768119343
NETSAT-3                
1 46505U 20068V   22336.59882449  .00002472  00000+0  18095-3 0  9991
2 46505  97.7404 276.1912 0011532 117.0139 243.2286 15.04471884119320
NETSAT-1                
1 46506U 20068W   22336.55507990  .00002818  00000+0  20595-3 0  9995
2 46506  97.7408 276.0620 0010229 124.9644 235.2558 15.04430252119316
NETSAT-2                
1 46507U 20068X   22336.69916581  .00003342  00000+0  24331-3 0  9996
2 46507  97.7398 276.1964 0009621 132.1443 228.0599 15.04440207119281
SAI-1 NANOCONNECT-2     
1 47701U 21015C   22336.47455544  .00015771  00000+0  51354-3 0  9993
2 47701  97.4096  52.9112 0009630 211.2201 148.8469 15.31890006 97899
WILDTRACKCUBE-SIMBA     
1 47941U 21022K   22336.93940223  .00004076  00000+0  26370-3 0  9997
2 47941  97.5128 232.8251 0019374 293.8664 123.7710 15.08587845 93389
BEESAT-6                
1 47957U 21022AB  22336.67780957  .99999999  00000+0  15112+2 0  9996
2 47957  97.5118 233.0779 0017800 294.2968  65.6403 15.11165324 93186
SMOG-1                  
1 47964U 21022AJ  22336.16835218  .00008768  00000+0  50250-3 0  9990
2 47964  97.5149 234.0235 0015577 283.4631  76.4864 15.12730800 92214
MMSATS-1                
1 47976U 98067SJ  22336.89285653  .00045689  00000+0  36906-3 0  9993
2 47976  51.6359 193.3437 0003319 173.2593 308.5565 15.70367123 96619
BCCSAT-1                
1 48041U 21022AK  22336.65576023  .00007969  00000+0  47179-3 0  9995
2 48041  97.5154 233.8929 0012530 281.0031  78.9790 15.11624330 92223
BEESAT-5                
1 48083U 21022AM  22336.44273923  .00009266  00000+0  54661-3 0  9997
2 48083  97.5102 232.8861 0017304 295.2595  64.6842 15.11643999 92280
BEESAT-7                
1 48084U 21022AN  22332.69847043  .00008084  00000+0  48175-3 0  9991
2 48084  97.5108 229.1864 0018056 308.6950  51.2665 15.11309754 91303
BEESAT-8                
1 48085U 21022AP  22332.97678892  .00005343  00000+0  32491-3 0  9996
2 48085  97.5122 229.4217 0017977 307.7353  52.2247 15.10733788 91903
LEDSAT                  
1 49069U 21073D   22336.84429876  .00003707  00000+0  22904-3 0  9991
2 49069  97.5087  46.3894 0027703  78.1953 282.2382 15.10165795 71232
HSU-SAT1                
1 53462U 98067UB  22336.82860286  .00051971  00000+0  58269-3 0  9991
2 53462  51.6363 216.4347 0009772 171.0024 189.1146 15.62089807 17513
FUTABA                  
1 53463U 98067UC  22336.11523678  .00080021  00000+0  80181-3 0  9991
2 53463  51.6350 219.1630 0010513 168.2014 191.9229 15.64765048 17419
TUMNANOSAT              
1 53464U 98067UD  22336.74235389  .00102889  00000+0  90635-3 0  9992
2 53464  51.6346 215.0993 0011112 171.5205 188.5982 15.67851185 17528
